CCSDS_OMM_VERS = 2.0
CREATION_DATE  = 
ORIGINATOR     = 

OBJECT_NAME    = ATLAS CENTAUR R/B
OBJECT_ID      = 1972-065B
CENTER_NAME    = EARTH
REF_FRAME      = TEME
TIME_SYSTEM    = UTC
MEAN_ELEMENT_THEORY = SGP/SGP4

EPOCH          = 2026-01-20T20:29:47.467104
MEAN_MOTION    = 14.77526382
ECCENTRICITY   = .0034284
INCLINATION    = 35.0002
RA_OF_ASC_NODE = 226.0566
ARG_OF_PERICENTER = 326.7297
MEAN_ANOMALY   = 33.1249

EPHEMERIS_TYPE = 0
CLASSIFICATION_TYPE = U
NORAD_CAT_ID   = 6155
ELEMENT_SET_NO = 999
REV_AT_EPOCH   = 83418
BSTAR          = .25621817E-3
MEAN_MOTION_DOT = .1853E-4
MEAN_MOTION_DDOT = 0

CCSDS_OMM_VERS = 2.0
CREATION_DATE  = 
ORIGINATOR     = 

OBJECT_NAME    = SL-8 R/B
OBJECT_ID      = 1975-112B
CENTER_NAME    = EARTH
REF_FRAME      = TEME
TIME_SYSTEM    = UTC
MEAN_ELEMENT_THEORY = SGP/SGP4

EPOCH          = 2026-01-20T15:29:59.470944
MEAN_MOTION    = 14.38174974
ECCENTRICITY   = .00162246
INCLINATION    = 74.0611
RA_OF_ASC_NODE = 107.2963
ARG_OF_PERICENTER = 214.4946
MEAN_ANOMALY   = 145.5157

EPHEMERIS_TYPE = 0
CLASSIFICATION_TYPE = U
NORAD_CAT_ID   = 8459
ELEMENT_SET_NO = 999
REV_AT_EPOCH   = 62496
BSTAR          = .17901587E-3
MEAN_MOTION_DOT = .518E-5
MEAN_MOTION_DDOT = 0

CCSDS_OMM_VERS = 2.0
CREATION_DATE  = 
ORIGINATOR     = 

OBJECT_NAME    = SL-3 R/B
OBJECT_ID      = 1977-057B
CENTER_NAME    = EARTH
REF_FRAME      = TEME
TIME_SYSTEM    = UTC
MEAN_ELEMENT_THEORY = SGP/SGP4

EPOCH          = 2026-01-20T23:29:30.645024
MEAN_MOTION    = 15.44029092
ECCENTRICITY   = .00085796
INCLINATION    = 97.5709
RA_OF_ASC_NODE = 190.8718
ARG_OF_PERICENTER = 95.1352
MEAN_ANOMALY   = 265.0875

EPHEMERIS_TYPE = 0
CLASSIFICATION_TYPE = U
NORAD_CAT_ID   = 10114
ELEMENT_SET_NO = 999
REV_AT_EPOCH   = 66096
BSTAR          = .43965036E-3
MEAN_MOTION_DOT = .20017E-3
MEAN_MOTION_DDOT = 0

CCSDS_OMM_VERS = 2.0
CREATION_DATE  = 
ORIGINATOR     = 

OBJECT_NAME    = SEASAT 1
OBJECT_ID      = 1978-064A
CENTER_NAME    = EARTH
REF_FRAME      = TEME
TIME_SYSTEM    = UTC
MEAN_ELEMENT_THEORY = SGP/SGP4

EPOCH          = 2026-01-20T23:22:43.927392
MEAN_MOTION    = 14.46111212
ECCENTRICITY   = .00012114
INCLINATION    = 108.0166
RA_OF_ASC_NODE = 25.3602
ARG_OF_PERICENTER = 282.3621
MEAN_ANOMALY   = 77.7389

EPHEMERIS_TYPE = 0
CLASSIFICATION_TYPE = U
NORAD_CAT_ID   = 10967
ELEMENT_SET_NO = 999
REV_AT_EPOCH   = 49961
BSTAR          = .2406435E-3
MEAN_MOTION_DOT = .723E-5
MEAN_MOTION_DDOT = 0

CCSDS_OMM_VERS = 2.0
CREATION_DATE  = 
ORIGINATOR     = 

OBJECT_NAME    = SL-14 R/B
OBJECT_ID      = 1979-011B
CENTER_NAME    = EARTH
REF_FRAME      = TEME
TIME_SYSTEM    = UTC
MEAN_ELEMENT_THEORY = SGP/SGP4

EPOCH          = 2026-01-20T19:48:50.692608
MEAN_MOTION    = 14.91833725
ECCENTRICITY   = .00152449
INCLINATION    = 82.5260
RA_OF_ASC_NODE = 141.9764
ARG_OF_PERICENTER = 213.0666
MEAN_ANOMALY   = 146.9602

EPHEMERIS_TYPE = 0
CLASSIFICATION_TYPE = U
NORAD_CAT_ID   = 11267
ELEMENT_SET_NO = 999
REV_AT_EPOCH   = 52164
BSTAR          = .11719787E-3
MEAN_MOTION_DOT = .121E-4
MEAN_MOTION_DDOT = 0

CCSDS_OMM_VERS = 2.0
CREATION_DATE  = 
ORIGINATOR     = 

OBJECT_NAME    = SL-8 R/B
OBJECT_ID      = 1979-089B
CENTER_NAME    = EARTH
REF_FRAME      = TEME
TIME_SYSTEM    = UTC
MEAN_ELEMENT_THEORY = SGP/SGP4

EPOCH          = 2026-01-20T21:17:19.438656
MEAN_MOTION    = 14.42314548
ECCENTRICITY   = .00157457
INCLINATION    = 74.0679
RA_OF_ASC_NODE = 179.5232
ARG_OF_PERICENTER = 359.8185
MEAN_ANOMALY   = 0.2963

EPHEMERIS_TYPE = 0
CLASSIFICATION_TYPE = U
NORAD_CAT_ID   = 11574
ELEMENT_SET_NO = 999
REV_AT_EPOCH   = 42921
BSTAR          = .22355704E-3
MEAN_MOTION_DOT = .713E-5
MEAN_MOTION_DDOT = 0

CCSDS_OMM_VERS = 2.0
CREATION_DATE  = 
ORIGINATOR     = 

OBJECT_NAME    = SL-14 R/B
OBJECT_ID      = 1980-005B
CENTER_NAME    = EARTH
REF_FRAME      = TEME
TIME_SYSTEM    = UTC
MEAN_ELEMENT_THEORY = SGP/SGP4

EPOCH          = 2026-01-20T22:35:39.822432
MEAN_MOTION    = 14.90851867
ECCENTRICITY   = .00148745
INCLINATION    = 82.5156
RA_OF_ASC_NODE = 352.5149
ARG_OF_PERICENTER = 328.1577
MEAN_ANOMALY   = 31.8741

EPHEMERIS_TYPE = 0
CLASSIFICATION_TYPE = U
NORAD_CAT_ID   = 11672
ELEMENT_SET_NO = 999
REV_AT_EPOCH   = 46937
BSTAR          = .11716631E-3
MEAN_MOTION_DOT = .118E-4
MEAN_MOTION_DDOT = 0

CCSDS_OMM_VERS = 2.0
CREATION_DATE  = 
ORIGINATOR     = 

OBJECT_NAME    = SL-8 R/B
OBJECT_ID      = 1981-003B
CENTER_NAME    = EARTH
REF_FRAME      = TEME
TIME_SYSTEM    = UTC
MEAN_ELEMENT_THEORY = SGP/SGP4

EPOCH          = 2026-01-20T22:58:59.426400
MEAN_MOTION    = 15.08837143
ECCENTRICITY   = .02694564
INCLINATION    = 82.9397
RA_OF_ASC_NODE = 334.0981
ARG_OF_PERICENTER = 345.4778
MEAN_ANOMALY   = 13.8810

EPHEMERIS_TYPE = 0
CLASSIFICATION_TYPE = U
NORAD_CAT_ID   = 12139
ELEMENT_SET_NO = 999
REV_AT_EPOCH   = 30747
BSTAR          = .10379647E-2
MEAN_MOTION_DOT = .39165E-3
MEAN_MOTION_DDOT = 0

CCSDS_OMM_VERS = 2.0
CREATION_DATE  = 
ORIGINATOR     = 

OBJECT_NAME    = SL-3 R/B
OBJECT_ID      = 1981-046B
CENTER_NAME    = EARTH
REF_FRAME      = TEME
TIME_SYSTEM    = UTC
MEAN_ELEMENT_THEORY = SGP/SGP4

EPOCH          = 2026-01-20T22:30:37.229760
MEAN_MOTION    = 15.40577952
ECCENTRICITY   = .00191894
INCLINATION    = 81.2341
RA_OF_ASC_NODE = 347.0090
ARG_OF_PERICENTER = 179.7675
MEAN_ANOMALY   = 180.3580

EPHEMERIS_TYPE = 0
CLASSIFICATION_TYPE = U
NORAD_CAT_ID   = 12465
ELEMENT_SET_NO = 999
REV_AT_EPOCH   = 43107
BSTAR          = .46308229E-3
MEAN_MOTION_DOT = .19E-3
MEAN_MOTION_DDOT = 0

CCSDS_OMM_VERS = 2.0
CREATION_DATE  = 
ORIGINATOR     = 

OBJECT_NAME    = SL-3 R/B
OBJECT_ID      = 1981-103B
CENTER_NAME    = EARTH
REF_FRAME      = TEME
TIME_SYSTEM    = UTC
MEAN_ELEMENT_THEORY = SGP/SGP4

EPOCH          = 2026-01-20T22:44:50.161056
MEAN_MOTION    = 15.20757866
ECCENTRICITY   = .00143801
INCLINATION    = 81.1586
RA_OF_ASC_NODE = 269.4222
ARG_OF_PERICENTER = 85.3169
MEAN_ANOMALY   = 274.9704

EPHEMERIS_TYPE = 0
CLASSIFICATION_TYPE = U
NORAD_CAT_ID   = 12904
ELEMENT_SET_NO = 999
REV_AT_EPOCH   = 96597
BSTAR          = .57163043E-3
MEAN_MOTION_DOT = .12652E-3
MEAN_MOTION_DDOT = 0

CCSDS_OMM_VERS = 2.0
CREATION_DATE  = 
ORIGINATOR     = 

OBJECT_NAME    = SL-3 R/B
OBJECT_ID      = 1982-013B
CENTER_NAME    = EARTH
REF_FRAME      = TEME
TIME_SYSTEM    = UTC
MEAN_ELEMENT_THEORY = SGP/SGP4

EPOCH          = 2026-01-20T23:26:29.474592
MEAN_MOTION    = 15.21463076
ECCENTRICITY   = .00225355
INCLINATION    = 81.1716
RA_OF_ASC_NODE = 216.6684
ARG_OF_PERICENTER = 343.0711
MEAN_ANOMALY   = 16.9766

EPHEMERIS_TYPE = 0
CLASSIFICATION_TYPE = U
NORAD_CAT_ID   = 13068
ELEMENT_SET_NO = 999
REV_AT_EPOCH   = 39709
BSTAR          = .37126542E-3
MEAN_MOTION_DOT = .8427E-4
MEAN_MOTION_DDOT = 0

CCSDS_OMM_VERS = 2.0
CREATION_DATE  = 
ORIGINATOR     = 

OBJECT_NAME    = SL-3 R/B
OBJECT_ID      = 1982-039B
CENTER_NAME    = EARTH
REF_FRAME      = TEME
TIME_SYSTEM    = UTC
MEAN_ELEMENT_THEORY = SGP/SGP4

EPOCH          = 2026-01-20T22:39:09.214560
MEAN_MOTION    = 15.09788047
ECCENTRICITY   = .00299773
INCLINATION    = 81.1661
RA_OF_ASC_NODE = 270.9812
ARG_OF_PERICENTER = 120.6342
MEAN_ANOMALY   = 239.7846

EPHEMERIS_TYPE = 0
CLASSIFICATION_TYPE = U
NORAD_CAT_ID   = 13154
ELEMENT_SET_NO = 999
REV_AT_EPOCH   = 37443
BSTAR          = .45172202E-3
MEAN_MOTION_DOT = .7397E-4
MEAN_MOTION_DDOT = 0

