ATLAS CENTAUR R/B       
1 06155U 72065B   26020.85402161  .00001853  00000+0  25622-3 0  9990
2 06155  35.0002 226.0566 0034284 326.7297  33.1249 14.77526382834184
SL-8 R/B                
1 08459U 75112B   26020.64582721  .00000518  00000+0  17902-3 0  9992
2 08459  74.0611 107.2963 0016224 214.4946 145.5157 14.38174974624963
SL-3 R/B                
1 10114U 77057B   26020.97882691  .00020017  00000+0  43965-3 0  9992
2 10114  97.5709 190.8718 0008579  95.1352 265.0875 15.44029092660960
SEASAT 1                
1 10967U 78064A   26020.97411953  .00000723  00000+0  24064-3 0  9997
2 10967 108.0166  25.3602 0001211 282.3621  77.7389 14.46111212499617
SL-14 R/B               
1 11267U 79011B   26020.82558672  .00001210  00000+0  11720-3 0  9995
2 11267  82.5260 141.9764 0015244 213.0666 146.9602 14.91833725521643
SL-8 R/B                
1 11574U 79089B   26020.88703054  .00000713  00000+0  22356-3 0  9997
2 11574  74.0679 179.5232 0015745 359.8185   0.2963 14.42314548429217
SL-14 R/B               
1 11672U 80005B   26020.94143313  .00001180  00000+0  11717-3 0  9997
2 11672  82.5156 352.5149 0014874 328.1577  31.8741 14.90851867469374
SL-8 R/B                
1 12139U 81003B   26020.95763225  .00039165  00000+0  10380-2 0  9994
2 12139  82.9397 334.0981 0269456 345.4778  13.8810 15.08837143307476
SL-3 R/B                
1 12465U 81046B   26020.93793090  .00019000  00000+0  46308-3 0  9990
2 12465  81.2341 347.0090 0019189 179.7675 180.3580 15.40577952431077
SL-3 R/B                
1 12904U 81103B   26020.94780279  .00012652  00000+0  57163-3 0  9995
2 12904  81.1586 269.4222 0014380  85.3169 274.9704 15.20757866965978
SL-3 R/B                
1 13068U 82013B   26020.97673003  .00008427  00000+0  37127-3 0  9990
2 13068  81.1716 216.6684 0022535 343.0711  16.9766 15.21463076397091
SL-3 R/B                
1 13154U 82039B   26020.94385665  .00007397  00000+0  45172-3 0  9999
2 13154  81.1661 270.9812 0029977 120.6342 239.7846 15.09788047374439
